[{"spaceTrack":{"CCSDS_OMM_VERS":"2.0","COMMENT":"GENERATED VIA SPACE-TRACK.ORG API","CREATION_DATE":"2021-07-02T17:51:43","ORIGINATOR":"18 SPCS","OBJECT_NAME":"STARLINK-2729","OBJECT_ID":"2021-040C","CENTER_NAME":"EARTH","REF_FRAME":"TEME","TIME_SYSTEM":"UTC","MEAN_ELEMENT_THEORY":"SGP4","EPOCH":"2021-07-02T14:00:01.999872","MEAN_MOTION":15.72785336,"ECCENTRICITY":0.0001536,"INCLINATION":53.0488,"RA_OF_ASC_NODE":313.0043,"ARG_OF_PERICENTER":47.033,"MEAN_ANOMALY":333.7963,"EPHEMERIS_TYPE":0,"CLASSIFICATION_TYPE":"U","NORAD_CAT_ID":48430,"ELEMENT_SET_NO":999,"REV_AT_EPOCH":376,"BSTAR":0.0045687,"MEAN_MOTION_DOT":0.0068357,"MEAN_MOTION_DDOT":0,"SEMIMAJOR_AXIS":6729.078,"PERIOD":91.557,"APOAPSIS":351.976,"PERIAPSIS":349.909,"OBJECT_TYPE":"PAYLOAD","RCS_SIZE":"LARGE","COUNTRY_CODE":"US","LAUNCH_DATE":"2021-05-09","SITE":"AFETR","DECAY_DATE":null,"DECAYED":0,"FILE":3068555,"GP_ID":180169201,"TLE_LINE0":"0 STARLINK-2729","TLE_LINE1":"1 48430U 21040C   21183.58335648  .00683570  00000-0  45687-2 0  9994","TLE_LINE2":"2 48430  53.0488 313.0043 0001536  47.0330 333.7963 15.72785336  3762"},"version":"v1.0","launch":"6079bd1c9a06446e8c61bf76","longitude":-72.59562601779417,"latitude":-47.99736679805591,"height_km":366.9612704877354,"velocity_kms":7.688427919506642,"id":"60a44134b913a10006eea54d"},{"spaceTrack":{"CCSDS_OMM_VERS":"2.0","COMMENT":"GENERATED VIA SPACE-TRACK.ORG API","CREATION_DATE":"2021-07-02T22:16:10","ORIGINATOR":"18 SPCS","OBJECT_NAME":"STARLINK-2749","OBJECT_ID":"2021-040B","CENTER_NAME":"EARTH","REF_FRAME":"TEME","TIME_SYSTEM":"UTC","MEAN_ELEMENT_THEORY":"SGP4","EPOCH":"2021-07-02T20:00:01.000224","MEAN_MOTION":15.73197014,"ECCENTRICITY":0.0001597,"INCLINATION":53.0486,"RA_OF_ASC_NODE":311.7652,"ARG_OF_PERICENTER":46.5429,"MEAN_ANOMALY":310.3238,"EPHEMERIS_TYPE":0,"CLASSIFICATION_TYPE":"U","NORAD_CAT_ID":48429,"ELEMENT_SET_NO":999,"REV_AT_EPOCH":990,"BSTAR":0.00047923,"MEAN_MOTION_DOT":0.0006718,"MEAN_MOTION_DDOT":0,"SEMIMAJOR_AXIS":6727.904,"PERIOD":91.533,"APOAPSIS":350.843,"PERIAPSIS":348.694,"OBJECT_TYPE":"PAYLOAD","RCS_SIZE":"LARGE","COUNTRY_CODE":"US","LAUNCH_DATE":"2021-05-09","SITE":"AFETR","DECAY_DATE":null,"DECAYED":0,"FILE":3068609,"GP_ID":180169723,"TLE_LINE0":"0 STARLINK-2749","TLE_LINE1":"1 48429U 21040B   21183.83334491  .00067180  00000-0  47923-3 0  9994","TLE_LINE2":"2 48429  53.0486 311.7652 0001597  46.5429 310.3238 15.73197014  9908"},"version":"v1.0","launch":"6079bd1c9a06446e8c61bf76","longitude":-73.07603374520015,"latitude":-47.83459604663802,"height_km":367.0637019082251,"velocity_kms":7.688322511898211,"id":"60a441357cf2d100068c65c8"},{"spaceTrack":{"CCSDS_OMM_VERS":"2.0","COMMENT":"GENERATED VIA SPACE-TRACK.ORG API","CREATION_DATE":"2021-07-02T17:51:43","ORIGINATOR":"18 SPCS","OBJECT_NAME":"STARLINK-2269","OBJECT_ID":"2021-040V","CENTER_NAME":"EARTH","REF_FRAME":"TEME","TIME_SYSTEM":"UTC","MEAN_ELEMENT_THEORY":"SGP4","EPOCH":"2021-07-02T12:00:02.000160","MEAN_MOTION":15.73216,"ECCENTRICITY":0.0001414,"INCLINATION":53.0487,"RA_OF_ASC_NODE":313.3948,"ARG_OF_PERICENTER":52.5101,"MEAN_ANOMALY":226.9517,"EPHEMERIS_TYPE":0,"CLASSIFICATION_TYPE":"U","NORAD_CAT_ID":48447,"ELEMENT_SET_NO":999,"REV_AT_EPOCH":374,"BSTAR":-0.00076365,"MEAN_MOTION_DOT":-0.0010654,"MEAN_MOTION_DDOT":0,"SEMIMAJOR_AXIS":6727.85,"PERIOD":91.532,"APOAPSIS":350.666,"PERIAPSIS":348.763,"OBJECT_TYPE":"PAYLOAD","RCS_SIZE":"LARGE","COUNTRY_CODE":"US","LAUNCH_DATE":"2021-05-09","SITE":"AFETR","DECAY_DATE":null,"DECAYED":0,"FILE":3068555,"GP_ID":180168986,"TLE_LINE0":"0 STARLINK-2269","TLE_LINE1":"1 48447U 21040V   21183.50002315 -.00106540  00000-0 -76365-3 0  9993","TLE_LINE2":"2 48447  53.0487 313.3948 0001414  52.5101 226.9517 15.73216000  3742"},"version":"v1.0","launch":"6079bd1c9a06446e8c61bf76","longitude":-56.21411710757489,"latitude":-51.90603692910337,"height_km":368.8015660642832,"velocity_kms":7.68740853376849,"id":"60a44135b913a10006eea593"},{"spaceTrack":{"CCSDS_OMM_VERS":"2.0","COMMENT":"GENERATED VIA SPACE-TRACK.ORG API","CREATION_DATE":"2021-07-02T17:51:43","ORIGINATOR":"18 SPCS","OBJECT_NAME":"STARLINK-2620","OBJECT_ID":"2021-040AB","CENTER_NAME":"EARTH","REF_FRAME":"TEME","TIME_SYSTEM":"UTC","MEAN_ELEMENT_THEORY":"SGP4","EPOCH":"2021-07-02T12:00:02.000160","MEAN_MOTION":15.73215236,"ECCENTRICITY":0.0001371,"INCLINATION":53.048,"RA_OF_ASC_NODE":313.3867,"ARG_OF_PERICENTER":55.663,"MEAN_ANOMALY":227.3127,"EPHEMERIS_TYPE":0,"CLASSIFICATION_TYPE":"U","NORAD_CAT_ID":48453,"ELEMENT_SET_NO":999,"REV_AT_EPOCH":374,"BSTAR":-0.000026714,"MEAN_MOTION_DOT":-0.00004371,"MEAN_MOTION_DDOT":0,"SEMIMAJOR_AXIS":6727.852,"PERIOD":91.532,"APOAPSIS":350.639,"PERIAPSIS":348.794,"OBJECT_TYPE":"PAYLOAD","RCS_SIZE":"LARGE","COUNTRY_CODE":"US","LAUNCH_DATE":"2021-05-09","SITE":"AFETR","DECAY_DATE":null,"DECAYED":0,"FILE":3068555,"GP_ID":180169059,"TLE_LINE0":"0 STARLINK-2620","TLE_LINE1":"1 48453U 21040AB  21183.50002315 -.00004371  00000-0 -26714-4 0  9993","TLE_LINE2":"2 48453  53.0480 313.3867 0001371  55.6630 227.3127 15.73215236  3747"},"version":"v1.0","launch":"6079bd1c9a06446e8c61bf76","longitude":-50.51335836570105,"latitude":-52.62355044945291,"height_km":368.7834716838679,"velocity_kms":7.687441352766541,"id":"60a44134b913a10006eea567"},{"spaceTrack":{"CCSDS_OMM_VERS":"2.0","COMMENT":"GENERATED VIA SPACE-TRACK.ORG API","CREATION_DATE":"2021-07-02T17:51:43","ORIGINATOR":"18 SPCS","OBJECT_NAME":"STARLINK-2703","OBJECT_ID":"2021-040AA","CENTER_NAME":"EARTH","REF_FRAME":"TEME","TIME_SYSTEM":"UTC","MEAN_ELEMENT_THEORY":"SGP4","EPOCH":"2021-07-02T12:00:02.000160","MEAN_MOTION":15.73191242,"ECCENTRICITY":0.0001514,"INCLINATION":53.0486,"RA_OF_ASC_NODE":313.3869,"ARG_OF_PERICENTER":54.2983,"MEAN_ANOMALY":228.2735,"EPHEMERIS_TYPE":0,"CLASSIFICATION_TYPE":"U","NORAD_CAT_ID":48452,"ELEMENT_SET_NO":999,"REV_AT_EPOCH":372,"BSTAR":0.0000048451,"MEAN_MOTION_DOT":5.9e-7,"MEAN_MOTION_DDOT":0,"SEMIMAJOR_AXIS":6727.92,"PERIOD":91.534,"APOAPSIS":350.804,"PERIAPSIS":348.767,"OBJECT_TYPE":"PAYLOAD","RCS_SIZE":"LARGE","COUNTRY_CODE":"US","LAUNCH_DATE":"2021-05-09","SITE":"AFETR","DECAY_DATE":null,"DECAYED":0,"FILE":3068555,"GP_ID":180169422,"TLE_LINE0":"0 STARLINK-2703","TLE_LINE1":"1 48452U 21040AA  21183.50002315  .00000059  00000-0  48451-5 0  9992","TLE_LINE2":"2 48452  53.0486 313.3869 0001514  54.2983 228.2735 15.73191242  3722"},"version":"v1.0","launch":"6079bd1c9a06446e8c61bf76","longitude":-51.223182856385854,"latitude":-52.55094475634932,"height_km":368.89185716420616,"velocity_kms":7.6873341430440325,"id":"60a44133b913a10006eea513"},{"spaceTrack":{"CCSDS_OMM_VERS":"2.0","COMMENT":"GENERATED VIA SPACE-TRACK.ORG API","CREATION_DATE":"2021-07-02T17:51:43","ORIGINATOR":"18 SPCS","OBJECT_NAME":"STARLINK-2639","OBJECT_ID":"2021-040J","CENTER_NAME":"EARTH","REF_FRAME":"TEME","TIME_SYSTEM":"UTC","MEAN_ELEMENT_THEORY":"SGP4","EPOCH":"2021-07-02T12:00:02.000160","MEAN_MOTION":15.73214972,"ECCENTRICITY":0.0001437,"INCLINATION":53.0481,"RA_OF_ASC_NODE":313.4102,"ARG_OF_PERICENTER":52.1525,"MEAN_ANOMALY":220.0138,"EPHEMERIS_TYPE":0,"CLASSIFICATION_TYPE":"U","NORAD_CAT_ID":48436,"ELEMENT_SET_NO":999,"REV_AT_EPOCH":374,"BSTAR":-0.000022889,"MEAN_MOTION_DOT":-0.00003834,"MEAN_MOTION_DDOT":0,"SEMIMAJOR_AXIS":6727.852,"PERIOD":91.532,"APOAPSIS":350.684,"PERIAPSIS":348.751,"OBJECT_TYPE":"PAYLOAD","RCS_SIZE":"LARGE","COUNTRY_CODE":"US","LAUNCH_DATE":"2021-05-09","SITE":"AFETR","DECAY_DATE":null,"DECAYED":0,"FILE":3068555,"GP_ID":180169420,"TLE_LINE0":"0 STARLINK-2639","TLE_LINE1":"1 48436U 21040J   21183.50002315 -.00003834  00000-0 -22889-4 0  9996","TLE_LINE2":"2 48436  53.0481 313.4102 0001437  52.1525 220.0138 15.73214972  3748"},"version":"v1.0","launch":"6079bd1c9a06446e8c61bf76","longitude":-67.05339993444807,"latitude":-49.658190755789356,"height_km":367.7085703085122,"velocity_kms":7.688001408324531,"id":"60a441347cf2d100068c6555"},{"spaceTrack":{"CCSDS_OMM_VERS":"2.0","COMMENT":"GENERATED VIA SPACE-TRACK.ORG API","CREATION_DATE":"2021-07-02T17:51:43","ORIGINATOR":"18 SPCS","OBJECT_NAME":"STARLINK-2640","OBJECT_ID":"2021-040L","CENTER_NAME":"EARTH","REF_FRAME":"TEME","TIME_SYSTEM":"UTC","MEAN_ELEMENT_THEORY":"SGP4","EPOCH":"2021-07-02T12:00:02.000160","MEAN_MOTION":15.73217673,"ECCENTRICITY":0.0001353,"INCLINATION":53.0489,"RA_OF_ASC_NODE":313.4079,"ARG_OF_PERICENTER":54.793,"MEAN_ANOMALY":218.8963,"EPHEMERIS_TYPE":0,"CLASSIFICATION_TYPE":"U","NORAD_CAT_ID":48438,"ELEMENT_SET_NO":999,"REV_AT_EPOCH":374,"BSTAR":-0.00061919,"MEAN_MOTION_DOT":-0.00086711,"MEAN_MOTION_DDOT":0,"SEMIMAJOR_AXIS":6727.845,"PERIOD":91.532,"APOAPSIS":350.62,"PERIAPSIS":348.8,"OBJECT_TYPE":"PAYLOAD","RCS_SIZE":"LARGE","COUNTRY_CODE":"US","LAUNCH_DATE":"2021-05-09","SITE":"AFETR","DECAY_DATE":null,"DECAYED":0,"FILE":3068555,"GP_ID":180169202,"TLE_LINE0":"0 STARLINK-2640","TLE_LINE1":"1 48438U 21040L   21183.50002315 -.00086711  00000-0 -61919-3 0  9999","TLE_LINE2":"2 48438  53.0489 313.4079 0001353  54.7930 218.8963 15.73217673  3748"},"version":"v1.0","launch":"6079bd1c9a06446e8c61bf76","longitude":-64.94405825976862,"latitude":-50.193943269429695,"height_km":368.08199026697366,"velocity_kms":7.687812819316098,"id":"60a44135b913a10006eea59d"}]